{"type": "FeatureCollection", "features": [ {"type": "Feature", "properties": {"norad_id": 66558, "name": "STARLINK-35695", "group": "last-30-days", "lat": 37.11878476526992, "lon": -124.056085026349, "alt_km": 410.3787478631939, "timestamp": "2025-12-14T14:39:28.131813+00:00", "meta": {"OBJECT_NAME": "STARLINK-35695", "OBJECT_ID": "2025-268B", "EPOCH": "2025-12-13T16:30:41.696640", "MEAN_MOTION": 15.50654351, "ECCENTRICITY": 0.00029632, "INCLINATION": 43.0006, "RA_OF_ASC_NODE": 115.6497, "ARG_OF_PERICENTER": 299.3158, "MEAN_ANOMALY": 60.7406, "EPHEMERIS_TYPE": 0, "CLASSIFICATION_TYPE": "U", "NORAD_CAT_ID": 66558, "ELEMENT_SET_NO": 999, "REV_AT_EPOCH": 477, "BSTAR": 0.0015519669, "MEAN_MOTION_DOT": 0.00092037, "MEAN_MOTION_DDOT": 0}, "tle": {"line1": "1 66558U 25268B   25347.68798260  .00092037  00000+0  15520-2 0  9995", "line2": "2 66558  43.0006 115.6497 0002963 299.3158  60.7406 15.50654351  4771"}}, "geometry": {"type": "Point", "coordinates": [-124.056085026349, 37.11878476526992]}}, {"type": "Feature", "properties": {"norad_id": 66559, "name": "STARLINK-35419", "group": "last-30-days", "lat": 36.37473512853585, "lon": -121.98257451826754, "alt_km": 411.58550092225414, "timestamp": "2025-12-14T14:39:28.131826+00:00", "meta": {"OBJECT_NAME": "STARLINK-35419", "OBJECT_ID": "2025-268C", "EPOCH": "2025-12-13T16:30:11.401344", "MEAN_MOTION": 15.50626619, "ECCENTRICITY": 0.00046072, "INCLINATION": 43.0002, "RA_OF_ASC_NODE": 115.6467, "ARG_OF_PERICENTER": 276.7256, "MEAN_ANOMALY": 83.308, "EPHEMERIS_TYPE": 0, "CLASSIFICATION_TYPE": "U", "NORAD_CAT_ID": 66559, "ELEMENT_SET_NO": 999, "REV_AT_EPOCH": 477, "BSTAR": 0.0015324685, "MEAN_MOTION_DOT": 0.00090791, "MEAN_MOTION_DDOT": 0}, "tle": {"line1": "1 66559U 25268C   25347.68763196  .00090791  00000+0  15325-2 0  9994", "line2": "2 66559  43.0002 115.6467 0004607 276.7256  83.3080 15.50626619  4775"}}, "geometry": {"type": "Point", "coordinates": [-121.98257451826754, 36.37473512853585]}}, {"type": "Feature", "properties": {"norad_id": 66560, "name": "STARLINK-35411", "group": "last-30-days", "lat": 35.63608728708439, "lon": -120.05000409618322, "alt_km": 410.413952260742, "timestamp": "2025-12-14T14:39:28.131839+00:00", "meta": {"OBJECT_NAME": "STARLINK-35411", "OBJECT_ID": "2025-268D", "EPOCH": "2025-12-13T16:29:42.127296", "MEAN_MOTION": 15.50572925, "ECCENTRICITY": 0.00023124, "INCLINATION": 43.0004, "RA_OF_ASC_NODE": 115.6445, "ARG_OF_PERICENTER": 316.0869, "MEAN_ANOMALY": 43.9807, "EPHEMERIS_TYPE": 0, "CLASSIFICATION_TYPE": "U", "NORAD_CAT_ID": 66560, "ELEMENT_SET_NO": 999, "REV_AT_EPOCH": 477, "BSTAR": 0.0012956136, "MEAN_MOTION_DOT": 0.00076398, "MEAN_MOTION_DDOT": 0}, "tle": {"line1": "1 66560U 25268D   25347.68729314  .00076398  00000+0  12956-2 0  9994", "line2": "2 66560  43.0004 115.6445 0002312 316.0869  43.9807 15.50572925  4773"}}, "geometry": {"type": "Point", "coordinates": [-120.05000409618322, 35.63608728708439]}}, {"type": "Feature", "properties": {"norad_id": 66561, "name": "STARLINK-35305", "group": "last-30-days", "lat": 33.901694743345644, "lon": -115.92270854849511, "alt_km": 410.95849167421966, "timestamp": "2025-12-14T14:39:28.131849+00:00", "meta": {"OBJECT_NAME": "STARLINK-35305", "OBJECT_ID": "2025-268E", "EPOCH": "2025-12-13T18:01:27.272640", "MEAN_MOTION": 15.50567943, "ECCENTRICITY": 0.00053533, "INCLINATION": 42.9991, "RA_OF_ASC_NODE": 115.2604, "ARG_OF_PERICENTER": 238.662, "MEAN_ANOMALY": 121.3717, "EPHEMERIS_TYPE": 0, "CLASSIFICATION_TYPE": "U", "NORAD_CAT_ID": 66561, "ELEMENT_SET_NO": 999, "REV_AT_EPOCH": 478, "BSTAR": 0.0016288996, "MEAN_MOTION_DOT": 0.00096406, "MEAN_MOTION_DDOT": 0}, "tle": {"line1": "1 66561U 25268E   25347.75101010  .00096406  00000+0  16289-2 0  9995", "line2": "2 66561  42.9991 115.2604 0005353 238.6620 121.3717 15.50567943  4788"}}, "geometry": {"type": "Point", "coordinates": [-115.92270854849511, 33.901694743345644]}}, {"type": "Feature", "properties": {"norad_id": 66562, "name": "STARLINK-35579", "group": "last-30-days", "lat": 34.76115586966629, "lon": -117.903993453498, "alt_km": 410.5288995050505, "timestamp": "2025-12-14T14:39:28.131862+00:00", "meta": {"OBJECT_NAME": "STARLINK-35579", "OBJECT_ID": "2025-268F", "EPOCH": "2025-12-13T16:29:12.763392", "MEAN_MOTION": 15.50595602, "ECCENTRICITY": 0.00022991, "INCLINATION": 43.0001, "RA_OF_ASC_NODE": 115.6406, "ARG_OF_PERICENTER": 314.819, "MEAN_ANOMALY": 45.2483, "EPHEMERIS_TYPE": 0, "CLASSIFICATION_TYPE": "U", "NORAD_CAT_ID": 66562, "ELEMENT_SET_NO": 999, "REV_AT_EPOCH": 477, "BSTAR": 0.0012293675, "MEAN_MOTION_DOT": 0.00072496, "MEAN_MOTION_DDOT": 0}, "tle": {"line1": "1 66562U 25268F   25347.68695328  .00072496  00000+0  12294-2 0  9993", "line2": "2 66562  43.0001 115.6406 0002299 314.8190  45.2483 15.50595602  4778"}}, "geometry": {"type": "Point", "coordinates": [-117.903993453498, 34.76115586966629]}}, {"type": "Feature", "properties": {"norad_id": 66563, "name": "STARLINK-35437", "group": "last-30-days", "lat": 32.90546899274704, "lon": -113.7553145832132, "alt_km": 409.73242592255247, "timestamp": "2025-12-14T14:39:28.131875+00:00", "meta": {"OBJECT_NAME": "STARLINK-35437", "OBJECT_ID": "2025-268G", "EPOCH": "2025-12-13T18:00:59.271264", "MEAN_MOTION": 15.50599495, "ECCENTRICITY": 9.723e-05, "INCLINATION": 42.9993, "RA_OF_ASC_NODE": 115.2574, "ARG_OF_PERICENTER": 282.1905, "MEAN_ANOMALY": 77.8847, "EPHEMERIS_TYPE": 0, "CLASSIFICATION_TYPE": "U", "NORAD_CAT_ID": 66563, "ELEMENT_SET_NO": 999, "REV_AT_EPOCH": 478, "BSTAR": 0.0020498902, "MEAN_MOTION_DOT": 0.00121894, "MEAN_MOTION_DDOT": 0}, "tle": {"line1": "1 66563U 25268G   25347.75068601  .00121894  00000+0  20499-2 0  9993", "line2": "2 66563  42.9993 115.2574 0000972 282.1905  77.8847 15.50599495  4786"}}, "geometry": {"type": "Point", "coordinates": [-113.7553145832132, 32.90546899274704]}}, {"type": "Feature", "properties": {"norad_id": 66564, "name": "STARLINK-35358", "group": "last-30-days", "lat": 31.926398881832302, "lon": -111.74220321408406, "alt_km": 410.41800853079985, "timestamp": "2025-12-14T14:39:28.131886+00:00", "meta": {"OBJECT_NAME": "STARLINK-35358", "OBJECT_ID": "2025-268H", "EPOCH": "2025-12-13T16:27:43.902720", "MEAN_MOTION": 15.50605264, "ECCENTRICITY": 0.00016791, "INCLINATION": 43.0002, "RA_OF_ASC_NODE": 115.6325, "ARG_OF_PERICENTER": 311.2605, "MEAN_ANOMALY": 48.811, "EPHEMERIS_TYPE": 0, "CLASSIFICATION_TYPE": "U", "NORAD_CAT_ID": 66564, "ELEMENT_SET_NO": 999, "REV_AT_EPOCH": 477, "BSTAR": 0.0017717022, "MEAN_MOTION_DOT": 0.00105101, "MEAN_MOTION_DDOT": 0}, "tle": {"line1": "1 66564U 25268H   25347.68592480  .00105101  00000+0  17717-2 0  9995", "line2": "2 66564  43.0002 115.6325 0001679 311.2605  48.8110 15.50605264  4776"}}, "geometry": {"type": "Point", "coordinates": [-111.74220321408406, 31.926398881832302]}}, {"type": "Feature", "properties": {"norad_id": 66565, "name": "STARLINK-35893", "group": "last-30-days", "lat": 30.94074672452968, "lon": -109.82309756383965, "alt_km": 410.4918876475185, "timestamp": "2025-12-14T14:39:28.131896+00:00", "meta": {"OBJECT_NAME": "STARLINK-35893", "OBJECT_ID": "2025-268J", "EPOCH": "2025-12-13T17:59:59.574048", "MEAN_MOTION": 15.50609427, "ECCENTRICITY": 0.00018158, "INCLINATION": 42.9998, "RA_OF_ASC_NODE": 115.2522, "ARG_OF_PERICENTER": 277.9053, "MEAN_ANOMALY": 82.1601, "EPHEMERIS_TYPE": 0, "CLASSIFICATION_TYPE": "U", "NORAD_CAT_ID": 66565, "ELEMENT_SET_NO": 999, "REV_AT_EPOCH": 478, "BSTAR": 0.002034832, "MEAN_MOTION_DOT": 0.00121027, "MEAN_MOTION_DDOT": 0}, "tle": {"line1": "1 66565U 25268J   25347.74999507  .00121027  00000+0  20348-2 0  9993", "line2": "2 66565  42.9998 115.2522 0001815 277.9053  82.1601 15.50609427  4783"}}, "geometry": {"type": "Point", "coordinates": [-109.82309756383965, 30.94074672452968]}}, {"type": "Feature", "properties": {"norad_id": 66566, "name": "STARLINK-35871", "group": "last-30-days", "lat": 29.92763292192979, "lon": -107.94435165006506, "alt_km": 410.2155300922477, "timestamp": "2025-12-14T14:39:28.131906+00:00", "meta": {"OBJECT_NAME": "STARLINK-35871", "OBJECT_ID": "2025-268K", "EPOCH": "2025-12-13T17:59:30.214464", "MEAN_MOTION": 15.50606074, "ECCENTRICITY": 0.00011009, "INCLINATION": 42.9994, "RA_OF_ASC_NODE": 115.249, "ARG_OF_PERICENTER": 280.1645, "MEAN_ANOMALY": 79.9091, "EPHEMERIS_TYPE": 0, "CLASSIFICATION_TYPE": "U", "NORAD_CAT_ID": 66566, "ELEMENT_SET_NO": 999, "REV_AT_EPOCH": 478, "BSTAR": 0.0021057243, "MEAN_MOTION_DOT": 0.00125308, "MEAN_MOTION_DDOT": 0}, "tle": {"line1": "1 66566U 25268K   25347.74965526  .00125308  00000+0  21057-2 0  9992", "line2": "2 66566  42.9994 115.2490 0001100 280.1645  79.9091 15.50606074  4786"}}, "geometry": {"type": "Point", "coordinates": [-107.94435165006506, 29.92763292192979]}}, {"type": "Feature", "properties": {"norad_id": 66567, "name": "STARLINK-35825", "group": "last-30-days", "lat": 28.927556023350213, "lon": -106.16924522910504, "alt_km": 411.2683911193999, "timestamp": "2025-12-14T14:39:28.131917+00:00", "meta": {"OBJECT_NAME": "STARLINK-35825", "OBJECT_ID": "2025-268L", "EPOCH": "2025-12-13T16:26:14.708544", "MEAN_MOTION": 15.50597371, "ECCENTRICITY": 0.0002181, "INCLINATION": 43, "RA_OF_ASC_NODE": 115.624, "ARG_OF_PERICENTER": 286.4938, "MEAN_ANOMALY": 73.5683, "EPHEMERIS_TYPE": 0, "CLASSIFICATION_TYPE": "U", "NORAD_CAT_ID": 66567, "ELEMENT_SET_NO": 999, "REV_AT_EPOCH": 477, "BSTAR": 0.001467879, "MEAN_MOTION_DOT": 0.00086792, "MEAN_MOTION_DDOT": 0}, "tle": {"line1": "1 66567U 25268L   25347.68489246  .00086792  00000+0  14679-2 0  9991", "line2": "2 66567  43.0000 115.6240 0002181 286.4938  73.5683 15.50597371  4773"}}, "geometry": {"type": "Point", "coordinates": [-106.16924522910504, 28.927556023350213]}}]}